BEIDOU 3 (C01)          
1 36287U 10001A   21029.55241934 -.00000276  00000-0  00000-0 0  9991
2 36287   1.6732  40.2632 0002706 113.7724 314.2699  1.00273194 40470
BEIDOU 5 (C06)          
1 36828U 10036A   21029.63710358 -.00000068  00000-0  00000-0 0  9999
2 36828  54.1719 180.8729 0101898 233.1888  59.5641  1.00245067 38513
BEIDOU 6 (C04)          
1 37210U 10057A   21029.62531860 -.00000107  00000-0  00000-0 0  9990
2 37210   0.9001  51.3325 0005622 192.8175 270.1247  1.00272526 37583
BEIDOU 7 (C07)          
1 37256U 10068A   21029.41550557 -.00000182  00000-0  00000-0 0  9996
2 37256  51.0986 295.6546 0082194 216.6994 242.3066  1.00300991 37109
BEIDOU 8 (C08)          
1 37384U 11013A   21029.48163250 -.00000159  00000-0  00000-0 0  9990
2 37384  59.5836  59.3036 0055532 206.1485 154.8868  1.00293206 35972
BEIDOU 9 (C09)          
1 37763U 11038A   21029.63680263 -.00000052  00000-0  00000-0 0  9995
2 37763  54.4635 183.3082 0077047 223.6397  43.8485  1.00293403 34941
BEIDOU 10 (C10)         
1 37948U 11073A   21029.15803250 -.00000122  00000-0  00000-0 0  9997
2 37948  51.2015 295.2683 0069987 215.8132 129.8049  1.00284650 33693
BEIDOU 11 (C05)         
1 38091U 12008A   21029.63051970  .00000061  00000-0  00000-0 0  9994
2 38091   1.9601  71.5378 0003951 244.6359  98.5705  1.00271839 32776
BEIDOU 12 (C11)         
1 38250U 12018A   21029.20041066 -.00000062  00000-0  00000-0 0  9992
2 38250  56.7563  10.2108 0024423 250.0804 280.9452  1.86234344 59692
BEIDOU 13 (C12)         
1 38251U 12018B   21029.23951846 -.00000062  00000-0  00000-0 0  9992
2 38251  56.6806   9.5666 0015426 255.1640 346.5318  1.86234185 59692
BEIDOU 15 (C14)         
1 38775U 12050B   21029.56484063  .00000007  00000-0  00000-0 0  9995
2 38775  55.1465 128.6674 0013038 320.0982 337.0668  1.86232260 57073
BEIDOU 16 (C02)         
1 38953U 12059A   21029.63326764 -.00000172  00000-0  00000-0 0  9997
2 38953   1.6383  84.7929 0009327 260.4291  95.8454  1.00271199 30340
BEIDOU 17 (C31)         
1 40549U 15019A   21029.20228708 -.00000157  00000-0  00000-0 0  9995
2 40549  52.7155 318.5996 0036873 189.6687 146.3943  1.00296125 21371
BEIDOU 18 (C57)         
1 40748U 15037A   21029.37373057 -.00000064  00000-0  00000-0 0  9999
2 40748  55.9455   8.7327 0004750 328.3882 273.3480  1.86233397 37521
BEIDOU 19 (C58)         
1 40749U 15037B   21029.36390383 -.00000064  00000-0  00000-0 0  9990
2 40749  55.9486   8.7202 0007287 302.7109  69.1380  1.86232175 37527
BEIDOU 20 (C18)         
1 40938U 15053A   21029.15408921 -.00000088  00000-0  00000-0 0  9999
2 40938  52.2755 281.6561 0046015 190.9998 167.6531  1.00267863 19655
BEIDOU IGSO-6 (C13)     
1 41434U 16021A   21029.54299785 -.00000114  00000-0  00000+0 0  9995
2 41434  57.3621  58.1049 0041096 215.0681 144.2101  1.00297119 17777
BEIDOU-2 G7 (C03)       
1 41586U 16037A   21029.54640005 -.00000350  00000-0  00000-0 0  9998
2 41586   1.9620  69.5406 0009069 355.5263  11.0143  1.00264512 17095
BEIDOU-3 M1 (C19)       
1 43001U 17069A   21029.50422976  .00000006  00000-0  00000-0 0  9996
2 43001  55.3017 128.6023 0008592 284.2947 128.6284  1.86231693 22018
BEIDOU-3 M2 (C20)       
1 43002U 17069B   21029.50208454  .00000006  00000-0  00000-0 0  9990
2 43002  55.3013 128.6388 0007062 311.0164 144.0963  1.86231433 22007
BEIDOU-3 M3 (C27)       
1 43107U 18003A   21029.40760582 -.00000064  00000-0  00000-0 0  9994
2 43107  55.3846   9.8735 0003960  23.5041 174.1397  1.86232517 20765
BEIDOU-3 M4 (C28)       
1 43108U 18003B   21028.83854938 -.00000065  00000-0  00000-0 0  9991
2 43108  55.3780   9.8848 0004393 256.9799 324.3209  1.86232518 20752
BEIDOU-3 M5 (C21)       
1 43207U 18018A   21029.49282836  .00000006  00000-0  00000+0 0  9995
2 43207  55.2599 128.7346 0005343 331.9778  28.0054  1.86231437 20159
BEIDOU-3 M6 (C22)       
1 43208U 18018B   21029.55955964  .00000007  00000-0  00000-0 0  9994
2 43208  55.2595 128.7372 0007462 296.4583  63.4776  1.86231589 20150
BEIDOU-3 M7 (C29)       
1 43245U 18029A   21029.26894326 -.00000066  00000-0  00000-0 0  9995
2 43245  55.3210   7.6762 0001670 292.7087  82.0948  1.86232609 19304
BEIDOU-3 M8 (C30)       
1 43246U 18029B   21029.18576395 -.00000066  00000-0  10000-3 0  9994
2 43246  55.3179   7.7121 0005180 332.6147  32.5021  1.86233023 19291
BEIDOU IGSO-7 (C16)     
1 43539U 18057A   21029.33153772 -.00000117  00000-0  00000-0 0  9990
2 43539  55.0544 180.2046 0031588 211.9731 329.2875  1.00255846  9454
BEIDOU-3 M9 (C23)       
1 43581U 18062A   21029.30905547  .00000080  00000-0  00000-0 0  9993
2 43581  54.4595 249.3747 0002961 311.2724 346.2566  1.86231838 17032
BEIDOU-3 M10 (C24)      
1 43582U 18062B   21029.26577209  .00000080  00000-0  00000-0 0  9999
2 43582  54.4596 249.3668 0006601   7.9519 351.7848  1.86232250 17035
BEIDOU-3 M11 (C25)      
1 43602U 18067A   21028.39884933  .00000087  00000-0  00000-0 0  9992
2 43602  54.5318 247.9671 0007477   2.8914 178.0532  1.86231461 16519
BEIDOU-3 M12 (C26)      
1 43603U 18067B   21029.24259057  .00000082  00000-0  00000-0 0  9996
2 43603  54.5303 247.9053 0004693 358.9826 298.1561  1.86231719 16547
BEIDOU-3 M13 (C32)      
1 43622U 18072A   21029.45390642  .00000006  00000-0  00000-0 0  9998
2 43622  55.2260 128.3080 0005319 279.5087 189.6436  1.86231495 16066
BEIDOU-3 M14 (C33)      
1 43623U 18072B   21029.23896326  .00000004  00000-0  00000-0 0  9993
2 43623  55.2252 128.3074 0003547 311.6117 103.6681  1.86231520 16061
BEIDOU-3 M15 (C34)      
1 43647U 18078A   21029.37002419 -.00000066  00000-0  10000-3 0  9995
2 43647  55.2147   7.8741 0007370 340.2105  58.1253  1.86233068 15578
BEIDOU-3 M16 (C35)      
1 43648U 18078B   21029.24025922 -.00000066  00000-0  10000-3 0  9996
2 43648  55.2114   7.8877 0005187 345.0089 235.0220  1.86232531 15586
BEIDOU-3 G1 (C59)       
1 43683U 18085A   21029.55233209 -.00000274  00000-0  00000-0 0  9993
2 43683   1.2993 241.9647 0003078  18.8203 207.1295  1.00270841  8369
BEIDOU-3 M17 (C36)      
1 43706U 18093A   21029.32748627  .00000080  00000-0  00000-0 0  9992
2 43706  54.5401 249.2225 0008269 280.4731 254.3743  1.86231860 14937
BEIDOU-3 M18 (C37)      
1 43707U 18093B   21029.50341265  .00000079  00000-0  00000-0 0  9998
2 43707  54.5409 249.2083 0007834 309.3091  74.2129  1.86232114 14946
BEIDOU-3 IGSO-1 (C38)   
1 44204U 19023A   21029.47573888 -.00000183  00000-0  00000-0 0  9996
2 44204  55.8172  58.4323 0017608 202.7751 153.2033  1.00281203  6656
BEIDOU-2 G8             
1 44231U 19027A   21029.61492420 -.00000242  00000-0  00000-0 0  9994
2 44231   0.4879 311.3717 0007300 273.0806 270.5642  1.00271440  6385
BEIDOU-3 IGSO-2 (C39)   
1 44337U 19035A   21029.43663278 -.00000114  00000-0  00000-0 0  9999
2 44337  55.0853 176.2498 0016686 184.4780  33.0007  1.00273087  5999
BEIDOU-3 M23 (C45)      
1 44542U 19061A   21029.45030721  .00000080  00000-0  10000-3 0  9994
2 44542  54.7644 249.2617 0008831 340.8379 320.5900  1.86231538  9191
BEIDOU-3 M24 (C46)      
1 44543U 19061B   21029.39477529  .00000080  00000-0  10000-3 0  9999
2 44543  54.7627 249.2335 0005752 339.6332 195.2304  1.86232026  9204
BEIDOU-3 IGSO-3         
1 44709U 19073A   21028.80414720 -.00000149  00000-0  00000-0 0  9998
2 44709  58.0612 301.5968 0019739 196.3346  27.4446  1.00266617  4742
BEIDOU-3 M21            
1 44793U 19078A   21029.64143370 -.00000066  00000-0  10000-3 0  9991
2 44793  55.0642   7.9489 0007058 346.0254 188.8986  1.86232593  8063
BEIDOU-3 M22            
1 44794U 19078B   21026.99648201 -.00000070  00000-0  10000-3 0  9995
2 44794  55.0380   8.0420 0005190 336.7866 135.5280  1.86233114  8011
BEIDOU-3 M19            
1 44864U 19090A   21029.22214373  .00000004  00000-0  00000-0 0  9997
2 44864  55.1602 128.5549 0015092 261.4293  97.7113  1.86231764  7637
BEIDOU-3 M20            
1 44865U 19090B   21029.22294490  .00000004  00000-0  00000-0 0  9996
2 44865  55.1612 128.5866 0013745 277.3530 172.2516  1.86231765  7620
BEIDOU-3 G2             
1 45344U 20017A   21029.54038078 -.00000133  00000-0  00000-0 0  9997
2 45344   2.6178 333.0053 0001587  13.7822  56.7707  1.00270737  3560
BEIDOU-3 G3             
1 45807U 20040A   21029.63095837 -.00000347  00000-0  00000-0 0  9990
2 45807   2.6034 298.4240 0010247  11.5078 156.7428  1.00277059  2383
